OBJECT_NAME,OBJECT_ID,EPOCH,MEAN_MOTION,ECCENTRICITY,INCLINATION,RA_OF_ASC_NODE,ARG_OF_PERICENTER,MEAN_ANOMALY,EPHEMERIS_TYPE,CLASSIFICATION_TYPE,NORAD_CAT_ID,ELEMENT_SET_NO,REV_AT_EPOCH,BSTAR,MEAN_MOTION_DOT,MEAN_MOTION_DDOT
QIANFAN-145,2026-108A,2026-06-16T05:50:52.727712,14.04281501,.0016014,89.0108,22.3325,109.9395,250.3513,0,U,69104,999,420,.88658808E-4,.155E-5,0
QIANFAN-146,2026-108B,2026-06-16T03:10:42.269088,14.14384861,.00170107,89.0113,22.3166,112.2272,248.0721,0,U,69105,999,420,.97535092E-4,.201E-5,0
QIANFAN-147,2026-108C,2026-06-16T05:18:01.346688,14.06578521,.00151929,89.0106,22.3287,107.2354,253.0493,0,U,69106,999,420,.32648034E-4,.68E-6,0
QIANFAN-148,2026-108D,2026-06-16T05:10:59.047680,14.05752796,.00170291,89.0104,22.3279,114.1308,246.1657,0,U,69107,999,420,.208275E-4,.48E-6,0
QIANFAN-149,2026-108E,2026-06-15T20:35:08.035296,14.02331937,.00149589,89.0102,22.3675,135.1974,225.0417,0,U,69108,999,415,-.14158607E+1,-.2018072E-1,0
QIANFAN-150,2026-108F,2026-06-15T15:03:57.091968,14.04834327,.0018725,89.0104,22.3890,129.5566,230.7274,0,U,69109,999,412,-.13738595E+1,-.2046775E-1,0
QIANFAN-151,2026-108G,2026-06-15T20:06:55.821312,14.04259816,.00217074,89.0107,22.3639,117.0229,243.3172,0,U,69110,999,415,-.1422207E+1,-.2094554E-1,0
QIANFAN-152,2026-108H,2026-06-16T06:02:43.021248,14.07375996,.00160842,89.0111,22.3139,114.7500,245.5359,0,U,69111,999,421,.67410992E-4,.127E-5,0
QIANFAN-153,2026-108J,2026-06-15T21:25:43.129056,14.04240468,.00142846,89.0100,22.3533,134.8964,225.3380,0,U,69112,999,416,-.14157181E+1,-.2082702E-1,0
QIANFAN-154,2026-108K,2026-06-15T21:12:38.580768,14.04928135,.00159402,89.0109,22.3530,129.6269,230.6322,0,U,69113,999,416,-.13699586E+1,-.2043744E-1,0
QIANFAN-155,2026-108L,2026-06-16T02:29:39.206400,14.06577890,.00164659,89.0089,22.3318,117.4326,242.8534,0,U,69114,999,419,.86394887E-4,.157E-5,0
QIANFAN-156,2026-108M,2026-06-16T07:08:50.661312,14.09009511,.0017589,89.0117,22.3065,109.8406,250.4675,0,U,69115,999,422,.46806288E-4,.95E-6,0
QIANFAN-157,2026-108N,2026-06-16T01:09:23.263488,14.11788989,.00163974,89.0075,22.3187,125.6311,234.6404,0,U,69116,999,419,.22809821E-4,.56E-6,0
QIANFAN-158,2026-108P,2026-06-16T01:43:53.786784,14.04515273,.00166871,89.0070,22.3420,116.2179,244.0721,0,U,69117,999,419,.17705692E-4,.42E-6,0
QIANFAN-159,2026-108Q,2026-06-16T06:39:22.634784,14.10468394,.00166255,89.0104,22.3005,110.5361,249.7609,0,U,69118,999,422,.3694519E-5,.21E-6,0
QIANFAN-160,2026-108R,2026-06-16T03:11:47.298048,14.09461303,.00158672,89.0107,22.3155,116.0775,244.2045,0,U,69119,999,420,-.4331933E-5,.7E-7,0
QIANFAN-161,2026-108S,2026-06-15T21:46:05.956032,14.09879851,.00097598,89.0104,22.3381,110.7412,249.4819,0,U,69120,999,417,-.12711E+1,-.2070156E-1,0
QIANFAN-162,2026-108T,2026-06-15T18:19:37.841952,14.12684321,.00164116,89.0110,22.3538,118.2011,242.0834,0,U,69121,999,415,.25427308E-4,.61E-6,0
SMILE,2026-109A,2026-05-24T15:40:35.120928,14.57062785,.00091232,70.0007,229.2745,259.5159,100.4951,0,U,69123,999,80,-.42378883E-3,-.1976E-4,0
STARLINK-37726,2026-110A,2026-06-16T06:20:36.865248,15.49204978,.00015356,97.2837,3.4736,87.2326,272.9101,0,U,69124,999,545,.27339956E-3,.14815E-3,0
STARLINK-37722,2026-110B,2026-06-15T13:12:33.569856,15.49208597,.0001731,97.2822,2.9146,97.0248,263.1200,0,U,69125,999,535,.52493359E-3,.28583E-3,0
STARLINK-37715,2026-110C,2026-06-16T06:00:02.000160,15.33446218,.00019266,97.2840,3.6238,92.7993,212.4916,0,U,69126,999,550,-.77416335E-3,-.24988E-3,0
STARLINK-37706,2026-110D,2026-06-16T06:00:02.000160,15.33450310,.00017017,97.2842,3.6314,90.8506,229.4343,0,U,69127,999,550,-.72567731E-3,-.23435E-3,0
STARLINK-37723,2026-110E,2026-06-16T06:00:02.000160,15.33446052,.00015711,97.2841,3.6390,90.9740,244.3090,0,U,69128,999,550,-.53023334E-3,-.17155E-3,0
STARLINK-37720,2026-110F,2026-06-15T23:55:54.888384,15.49212190,.00010674,97.2851,3.2243,86.8271,273.3103,0,U,69129,999,541,.74833074E-3,.40853E-3,0
STARLINK-37533,2026-110G,2026-06-16T06:00:02.000160,15.33468091,.00013654,97.2840,3.6563,90.1983,290.1491,0,U,69130,999,550,-.10130539E-2,-.32664E-3,0
STARLINK-37530,2026-110H,2026-06-16T06:00:02.000160,15.33451262,.00020368,97.2842,3.6653,88.4530,306.8370,0,U,69131,999,550,-.59796619E-3,-.19335E-3,0
STARLINK-37660,2026-110J,2026-06-16T06:00:02.000160,15.40383963,.00018702,97.2841,3.6439,95.8543,260.7365,0,U,69132,999,550,-.29467577E-1,-.1091042E-1,0
STARLINK-37633,2026-110K,2026-06-16T06:00:02.000160,15.41878805,.00015583,97.2843,3.6707,94.9743,302.3510,0,U,69133,999,550,-.64692095E-1,-.243556E-1,0
