QIANFAN-145             
1 69104U 26108A   26167.24366583  .00000155  00000+0  88659-4 0  9996
2 69104  89.0108  22.3325 0016014 109.9395 250.3513 14.04281501  4204
QIANFAN-146             
1 69105U 26108B   26167.13243367  .00000201  00000+0  97535-4 0  9994
2 69105  89.0113  22.3166 0017010 112.2272 248.0721 14.14384861  4201
QIANFAN-147             
1 69106U 26108C   26167.22084892  .00000068  00000+0  32648-4 0  9996
2 69106  89.0106  22.3287 0015192 107.2354 253.0493 14.06578521  4203
QIANFAN-148             
1 69107U 26108D   26167.21596120  .00000048  00000+0  20828-4 0  9993
2 69107  89.0104  22.3279 0017029 114.1308 246.1657 14.05752796  4202
QIANFAN-149             
1 69108U 26108E   26166.85773189 -.02018072  00000+0 -14159+1 0  9991
2 69108  89.0102  22.3675 0014958 135.1974 225.0417 14.02331937  4152
QIANFAN-150             
1 69109U 26108F   26166.62774412 -.02046775  00000+0 -13739+1 0  9991
2 69109  89.0104  22.3890 0018725 129.5566 230.7274 14.04834327  4128
QIANFAN-151             
1 69110U 26108G   26166.83814608 -.02094554  00000+0 -14222+1 0  9994
2 69110  89.0107  22.3639 0021707 117.0229 243.3172 14.04259816  4150
QIANFAN-152             
1 69111U 26108H   26167.25188682  .00000127  00000+0  67411-4 0  9999
2 69111  89.0111  22.3139 0016084 114.7500 245.5359 14.07375996  4218
QIANFAN-153             
1 69112U 26108J   26166.89286029 -.02082702  00000+0 -14157+1 0  9991
2 69112  89.0100  22.3533 0014284 134.8964 225.3380 14.04240468  4168
QIANFAN-154             
1 69113U 26108K   26166.88377987 -.02043744  00000+0 -13700+1 0  9991
2 69113  89.0109  22.3530 0015940 129.6269 230.6322 14.04928135  4164
QIANFAN-155             
1 69114U 26108L   26167.10392600  .00000157  00000+0  86395-4 0  9998
2 69114  89.0089  22.3318 0016465 117.4326 242.8534 14.06577890  4191
QIANFAN-156             
1 69115U 26108M   26167.29780858  .00000095  00000+0  46806-4 0  9999
2 69115  89.0117  22.3065 0017589 109.8406 250.4675 14.09009511  4223
QIANFAN-157             
1 69116U 26108N   26167.04818592  .00000056  00000+0  22810-4 0  9996
2 69116  89.0075  22.3187 0016397 125.6311 234.6404 14.11788989  4195
QIANFAN-158             
1 69117U 26108P   26167.07215031  .00000042  00000+0  17706-4 0  9992
2 69117  89.0070  22.3420 0016687 116.2179 244.0721 14.04515273  4194
QIANFAN-159             
1 69118U 26108Q   26167.27734531  .00000021  00000+0  36945-5 0  9990
2 69118  89.0104  22.3005 0016625 110.5361 249.7609 14.10468394  4223
QIANFAN-160             
1 69119U 26108R   26167.13318632  .00000007  00000+0 -43319-5 0  9994
2 69119  89.0107  22.3155 0015867 116.0775 244.2045 14.09461303  4203
QIANFAN-161             
1 69120U 26108S   26166.90701338 -.02070156  00000+0 -12711+1 0  9991
2 69120  89.0104  22.3381 0009759 110.7412 249.4819 14.09879851  4178
QIANFAN-162             
1 69121U 26108T   26166.76363243  .00000061  00000+0  25427-4 0  9991
2 69121  89.0110  22.3538 0016411 118.2011 242.0834 14.12684321  4155
SMILE                   
1 69123U 26109A   26144.65318427 -.00001976  00000+0 -42379-3 0  9994
2 69123  70.0007 229.2745 0009123 259.5159 100.4951 14.57062785   802
STARLINK-37726          
1 69124U 26110A   26167.26431557  .00014815  00000+0  27340-3 0  9994
2 69124  97.2837   3.4736 0001535  87.2326 272.9101 15.49204978  5450
STARLINK-37722          
1 69125U 26110B   26166.55038854  .00028583  00000+0  52493-3 0  9993
2 69125  97.2822   2.9146 0001731  97.0248 263.1200 15.49208597  5356
STARLINK-37715          
1 69126U 26110C   26167.25002315 -.00024988  00000+0 -77416-3 0  9994
2 69126  97.2840   3.6238 0001926  92.7993 212.4916 15.33446218  5507
STARLINK-37706          
1 69127U 26110D   26167.25002315 -.00023435  00000+0 -72568-3 0  9994
2 69127  97.2842   3.6314 0001701  90.8506 229.4343 15.33450310  5505
STARLINK-37723          
1 69128U 26110E   26167.25002315 -.00017155  00000+0 -53023-3 0  9992
2 69128  97.2841   3.6390 0001571  90.9740 244.3090 15.33446052  5508
STARLINK-37720          
1 69129U 26110F   26166.99716306  .00040853  00000+0  74833-3 0  9996
2 69129  97.2851   3.2243 0001067  86.8271 273.3103 15.49212190  5414
STARLINK-37533          
1 69130U 26110G   26167.25002315 -.00032664  00000+0 -10131-2 0  9999
2 69130  97.2840   3.6563 0001365  90.1983 290.1491 15.33468091  5505
STARLINK-37530          
1 69131U 26110H   26167.25002315 -.00019335  00000+0 -59797-3 0  9992
2 69131  97.2842   3.6653 0002036  88.4530 306.8370 15.33451262  5505
STARLINK-37660          
1 69132U 26110J   26167.25002315 -.01091042  00000+0 -29468-1 0  9999
2 69132  97.2841   3.6439 0001870  95.8543 260.7365 15.40383963  5500
STARLINK-37633          
1 69133U 26110K   26167.25002315 -.02435560  00000+0 -64692-1 0  9996
2 69133  97.2843   3.6707 0001558  94.9743 302.3510 15.41878805  5506
